start=new Date('2021-11-19T00:00:00.000Z').valueOf();
sats=[{"OBJECT_ID":"2021-082BB","INCLINATION":"69.9980","ELEMENT_SET_NO":"999","RA_OF_ASC_NODE":"301.8541","MEAN_MOTION":"15.69767373","PERIOD":"91.733","TLE_LINE1":"1 49179U 21082BB  21322.91667824  .00026247  00000-0  22077-3 0  9998","REF_FRAME":"TEME","SEMIMAJOR_AXIS":"6737.700","LAUNCH_DATE":"2021-09-14","EPHEMERIS_TYPE":"0","ARG_OF_PERICENTER":"282.1270","ECCENTRICITY":"0.00038020","OBJECT_NAME":"STARLINK-3043","BSTAR":"0.00022077000000","CENTER_NAME":"EARTH","MEAN_MOTION_DDOT":"0.0000000000000","TLE_LINE2":"2 49179  69.9980 301.8541 0003802 282.1270 321.8695 15.69767373  3708","RCS_SIZE":"LARGE","CLASSIFICATION_TYPE":"U","MEAN_ANOMALY":"321.8695","PERIAPSIS":"357.003","MEAN_ELEMENT_THEORY":"SGP4","COUNTRY_CODE":"US","MEAN_MOTION_DOT":"0.00026247","FILE":"3218669","OBJECT_TYPE":"PAYLOAD","SITE":"AFWTR","TIME_SYSTEM":"UTC","REV_AT_EPOCH":"370","GP_ID":"190040844","NORAD_CAT_ID":"49179","APOAPSIS":"362.126","DECAY_DATE":null,"EPOCH":"2021-11-18T22:00:00.999936"},{"REV_AT_EPOCH":"370","GP_ID":"190041151","NORAD_CAT_ID":"49180","APOAPSIS":"362.173","DECAY_DATE":null,"EPOCH":"2021-11-18T22:00:00.999936","COUNTRY_CODE":"US","MEAN_MOTION_DOT":"0.00053323","FILE":"3218669","OBJECT_TYPE":"PAYLOAD","SITE":"AFWTR","TIME_SYSTEM":"UTC","TLE_LINE2":"2 49180  69.9964 301.8403 0003784 283.4109 326.9472 15.69746847  3705","RCS_SIZE":"LARGE","CLASSIFICATION_TYPE":"U","MEAN_ANOMALY":"326.9472","PERIAPSIS":"357.074","MEAN_ELEMENT_THEORY":"SGP4","INCLINATION":"69.9964","OBJECT_ID":"2021-082BC","ELEMENT_SET_NO":"999","RA_OF_ASC_NODE":"301.8403","MEAN_MOTION":"15.69746847","REF_FRAME":"TEME","TLE_LINE1":"1 49180U 21082BC  21322.91667824  .00053323  00000-0  44563-3 0  9999","PERIOD":"91.735","SEMIMAJOR_AXIS":"6737.758","EPHEMERIS_TYPE":"0","LAUNCH_DATE":"2021-09-14","ARG_OF_PERICENTER":"283.4109","ECCENTRICITY":"0.00037840","OBJECT_NAME":"STARLINK-3050","BSTAR":"0.00044563000000","CENTER_NAME":"EARTH","MEAN_MOTION_DDOT":"0.0000000000000"},{"REV_AT_EPOCH":"370","EPOCH":"2021-11-18T22:00:00.999936","DECAY_DATE":null,"APOAPSIS":"402.765","NORAD_CAT_ID":"49181","GP_ID":"190040405","MEAN_MOTION_DOT":"-0.00656074","COUNTRY_CODE":"US","TIME_SYSTEM":"UTC","SITE":"AFWTR","OBJECT_TYPE":"PAYLOAD","FILE":"3218669","CLASSIFICATION_TYPE":"U","RCS_SIZE":"LARGE","TLE_LINE2":"2 49181  70.0002 302.1368 0003527 278.2105  77.7617 15.55612666  3707","MEAN_ELEMENT_THEORY":"SGP4","MEAN_ANOMALY":"77.7617","PERIAPSIS":"397.983","SEMIMAJOR_AXIS":"6778.509","PERIOD":"92.568","TLE_LINE1":"1 49181U 21082BD  21322.91667824 -.00656074  00000-0 -10331-1 0  9998","REF_FRAME":"TEME","RA_OF_ASC_NODE":"302.1368","MEAN_MOTION":"15.55612666","ELEMENT_SET_NO":"999","INCLINATION":"70.0002","OBJECT_ID":"2021-082BD","MEAN_MOTION_DDOT":"0.0000000000000","CENTER_NAME":"EARTH","BSTAR":"-0.01033100000000","ECCENTRICITY":"0.00035270","OBJECT_NAME":"STARLINK-3059","ARG_OF_PERICENTER":"278.2105","LAUNCH_DATE":"2021-09-14","EPHEMERIS_TYPE":"0"},{"ARG_OF_PERICENTER":"58.8195","LAUNCH_DATE":"2021-11-13","EPHEMERIS_TYPE":"0","MEAN_MOTION_DDOT":"0.0002418900000","CENTER_NAME":"EARTH","BSTAR":"-0.00211070000000","ECCENTRICITY":"0.00530040","OBJECT_NAME":"STARLINK-3151","ELEMENT_SET_NO":"999","INCLINATION":"53.2171","OBJECT_ID":"2021-104A","SEMIMAJOR_AXIS":"6671.836","TLE_LINE1":"1 49408U 21104A   21322.91667824 -.00872786  24189-3 -21107-2 0  9996","PERIOD":"90.392","REF_FRAME":"TEME","RA_OF_ASC_NODE":"107.2351","MEAN_MOTION":"15.93069384","PERIAPSIS":"258.338","MEAN_ANOMALY":"87.9006","MEAN_ELEMENT_THEORY":"SGP4","RCS_SIZE":null,"TLE_LINE2":"2 49408  53.2171 107.2351 0053004  58.8195  87.9006 15.93069384  1484","CLASSIFICATION_TYPE":"U","OBJECT_TYPE":"PAYLOAD","FILE":"3218669","TIME_SYSTEM":"UTC","SITE":"AFETR","COUNTRY_CODE":"US","MEAN_MOTION_DOT":"-0.00872786","DECAY_DATE":null,"APOAPSIS":"329.065","NORAD_CAT_ID":"49408","GP_ID":"190041302","EPOCH":"2021-11-18T22:00:00.999936","REV_AT_EPOCH":"148"},{"ELEMENT_SET_NO":"999","OBJECT_ID":"2021-104B","INCLINATION":"53.2171","PERIOD":"90.396","TLE_LINE1":"1 49409U 21104B   21322.91667824 -.00872799  24170-3 -21324-2 0  9992","REF_FRAME":"TEME","SEMIMAJOR_AXIS":"6672.065","RA_OF_ASC_NODE":"107.2387","MEAN_MOTION":"15.92987582","ARG_OF_PERICENTER":"58.6411","LAUNCH_DATE":"2021-11-13","EPHEMERIS_TYPE":"0","CENTER_NAME":"EARTH","MEAN_MOTION_DDOT":"0.0002417000000","ECCENTRICITY":"0.00519150","OBJECT_NAME":"STARLINK-3075","BSTAR":"-0.00213240000000","TLE_LINE2":"2 49409  53.2171 107.2387 0051915  58.6411  86.7230 15.92987582  1486","RCS_SIZE":null,"CLASSIFICATION_TYPE":"U","MEAN_ANOMALY":"86.7230","PERIAPSIS":"259.292","MEAN_ELEMENT_THEORY":"SGP4","COUNTRY_CODE":"US","MEAN_MOTION_DOT":"-0.00872799","FILE":"3218669","OBJECT_TYPE":"PAYLOAD","TIME_SYSTEM":"UTC","SITE":"AFETR","REV_AT_EPOCH":"148","DECAY_DATE":null,"APOAPSIS":"328.568","GP_ID":"190040556","NORAD_CAT_ID":"49409","EPOCH":"2021-11-18T22:00:00.999936"},{"MEAN_MOTION_DDOT":"0.0002418200000","CENTER_NAME":"EARTH","BSTAR":"-0.00212610000000","ECCENTRICITY":"0.00521270","OBJECT_NAME":"STARLINK-3147","ARG_OF_PERICENTER":"58.5668","LAUNCH_DATE":"2021-11-13","EPHEMERIS_TYPE":"0","SEMIMAJOR_AXIS":"6671.967","PERIOD":"90.394","TLE_LINE1":"1 49410U 21104C   21322.91667824 -.00872868  24182-3 -21261-2 0  9994","REF_FRAME":"TEME","RA_OF_ASC_NODE":"107.2371","MEAN_MOTION":"15.93022507","ELEMENT_SET_NO":"999","INCLINATION":"53.2171","OBJECT_ID":"2021-104C","MEAN_ELEMENT_THEORY":"SGP4","MEAN_ANOMALY":"87.2528","PERIAPSIS":"259.053","CLASSIFICATION_TYPE":"U","RCS_SIZE":null,"TLE_LINE2":"2 49410  53.2171 107.2371 0052127  58.5668  87.2528 15.93022507  1484","TIME_SYSTEM":"UTC","SITE":"AFETR","OBJECT_TYPE":"PAYLOAD","FILE":"3218669","MEAN_MOTION_DOT":"-0.00872868","COUNTRY_CODE":"US","EPOCH":"2021-11-18T22:00:00.999936","APOAPSIS":"328.611","DECAY_DATE":null,"NORAD_CAT_ID":"49410","GP_ID":"190040997","REV_AT_EPOCH":"148"},{"REV_AT_EPOCH":"148","NORAD_CAT_ID":"49411","GP_ID":"190040747","APOAPSIS":"327.844","DECAY_DATE":null,"EPOCH":"2021-11-18T22:00:00.999936","COUNTRY_CODE":"US","MEAN_MOTION_DOT":"-0.00873796","OBJECT_TYPE":"PAYLOAD","FILE":"3218669","SITE":"AFETR","TIME_SYSTEM":"UTC","RCS_SIZE":null,"TLE_LINE2":"2 49411  53.2171 107.2365 0051114  58.3381  88.0449 15.93055154  1488","CLASSIFICATION_TYPE":"U","PERIAPSIS":"259.638","MEAN_ANOMALY":"88.0449","MEAN_ELEMENT_THEORY":"SGP4","OBJECT_ID":"2021-104D","INCLINATION":"53.2171","ELEMENT_SET_NO":"999","RA_OF_ASC_NODE":"107.2365","MEAN_MOTION":"15.93055154","SEMIMAJOR_AXIS":"6671.876","TLE_LINE1":"1 49411U 21104D   21322.91667824 -.00873796  24236-3 -21355-2 0  9990","PERIOD":"90.392","REF_FRAME":"TEME","EPHEMERIS_TYPE":"0","LAUNCH_DATE":"2021-11-13","ARG_OF_PERICENTER":"58.3381","BSTAR":"-0.00213550000000","ECCENTRICITY":"0.00511140","OBJECT_NAME":"STARLINK-3162","MEAN_MOTION_DDOT":"0.0002423600000","CENTER_NAME":"EARTH"},{"OBJECT_TYPE":"PAYLOAD","FILE":"3218669","SITE":"AFETR","TIME_SYSTEM":"UTC","COUNTRY_CODE":"US","MEAN_MOTION_DOT":"-0.00873388","NORAD_CAT_ID":"49412","GP_ID":"190041121","APOAPSIS":"328.033","DECAY_DATE":null,"EPOCH":"2021-11-18T22:00:00.999936","REV_AT_EPOCH":"148","LAUNCH_DATE":"2021-11-13","EPHEMERIS_TYPE":"0","ARG_OF_PERICENTER":"58.3097","BSTAR":"-0.00213960000000","ECCENTRICITY":"0.00511890","OBJECT_NAME":"STARLINK-3144","MEAN_MOTION_DDOT":"0.0002420400000","CENTER_NAME":"EARTH","INCLINATION":"53.2171","OBJECT_ID":"2021-104E","ELEMENT_SET_NO":"999","RA_OF_ASC_NODE":"107.2376","MEAN_MOTION":"15.93005519","SEMIMAJOR_AXIS":"6672.015","TLE_LINE1":"1 49412U 21104E   21322.91667824 -.00873388  24204-3 -21396-2 0  9998","PERIOD":"90.395","REF_FRAME":"TEME","MEAN_ANOMALY":"87.2745","PERIAPSIS":"259.726","MEAN_ELEMENT_THEORY":"SGP4","RCS_SIZE":null,"TLE_LINE2":"2 49412  53.2171 107.2376 0051189  58.3097  87.2745 15.93005519  1487","CLASSIFICATION_TYPE":"U"},{"DECAY_DATE":null,"APOAPSIS":"328.263","NORAD_CAT_ID":"49413","GP_ID":"190040871","EPOCH":"2021-11-18T22:00:00.999936","REV_AT_EPOCH":"148","OBJECT_TYPE":"PAYLOAD","FILE":"3218669","TIME_SYSTEM":"UTC","SITE":"AFETR","COUNTRY_CODE":"US","MEAN_MOTION_DOT":"-0.00873572","PERIAPSIS":"258.946","MEAN_ANOMALY":"88.4891","MEAN_ELEMENT_THEORY":"SGP4","RCS_SIZE":null,"TLE_LINE2":"2 49413  53.2171 107.2351 0051948  58.7045  88.4891 15.93104082  1481","CLASSIFICATION_TYPE":"U","ARG_OF_PERICENTER":"58.7045","EPHEMERIS_TYPE":"0","LAUNCH_DATE":"2021-11-13","MEAN_MOTION_DDOT":"0.0002423700000","CENTER_NAME":"EARTH","BSTAR":"-0.00212010000000","ECCENTRICITY":"0.00519480","OBJECT_NAME":"STARLINK-3157","ELEMENT_SET_NO":"999","INCLINATION":"53.2171","OBJECT_ID":"2021-104F","SEMIMAJOR_AXIS":"6671.739","TLE_LINE1":"1 49413U 21104F   21322.91667824 -.00873572  24237-3 -21201-2 0  9995","PERIOD":"90.390","REF_FRAME":"TEME","MEAN_MOTION":"15.93104082","RA_OF_ASC_NODE":"107.2351"},{"CLASSIFICATION_TYPE":"U","TLE_LINE2":"2 49414  53.2171 107.2365 0051333  58.3486  87.8289 15.93037063  1488","RCS_SIZE":null,"MEAN_ELEMENT_THEORY":"SGP4","PERIAPSIS":"259.543","MEAN_ANOMALY":"87.8289","RA_OF_ASC_NODE":"107.2365","MEAN_MOTION":"15.93037063","PERIOD":"90.393","TLE_LINE1":"1 49414U 21104G   21322.91667824 -.00873476  24216-3 -21345-2 0  9995","REF_FRAME":"TEME","SEMIMAJOR_AXIS":"6671.927","OBJECT_ID":"2021-104G","INCLINATION":"53.2171","ELEMENT_SET_NO":"999","OBJECT_NAME":"STARLINK-3146","ECCENTRICITY":"0.00513330","BSTAR":"-0.00213450000000","CENTER_NAME":"EARTH","MEAN_MOTION_DDOT":"0.0002421600000","LAUNCH_DATE":"2021-11-13","EPHEMERIS_TYPE":"0","ARG_OF_PERICENTER":"58.3486","REV_AT_EPOCH":"148","EPOCH":"2021-11-18T22:00:00.999936","GP_ID":"190041178","NORAD_CAT_ID":"49414","APOAPSIS":"328.041","DECAY_DATE":null,"MEAN_MOTION_DOT":"-0.00873476","COUNTRY_CODE":"US","SITE":"AFETR","TIME_SYSTEM":"UTC","FILE":"3218669","OBJECT_TYPE":"PAYLOAD"}];
